OBJECT_NAME,OBJECT_ID,EPOCH,MEAN_MOTION,ECCENTRICITY,INCLINATION,RA_OF_ASC_NODE,ARG_OF_PERICENTER,MEAN_ANOMALY,EPHEMERIS_TYPE,CLASSIFICATION_TYPE,NORAD_CAT_ID,ELEMENT_SET_NO,REV_AT_EPOCH,BSTAR,MEAN_MOTION_DOT,MEAN_MOTION_DDOT
GAOFEN-11 01,2018-063A,2026-06-04T05:45:00.168192,15.54900232,.00045603,97.1296,222.1587,41.9080,318.2523,0,U,43585,999,43833,.24943565E-3,.16582E-3,0
ICESAT-2,2018-070A,2026-06-04T06:07:59.567520,15.28281930,.00046496,92.0072,287.4869,122.2955,237.8745,0,U,43613,999,43048,.41281263E-3,.11375E-3,0
HYSIS,2018-096A,2026-06-04T06:52:47.051616,14.78668565,.00015757,97.9842,222.1348,117.9453,242.1918,0,U,43719,999,40551,.21037047E-3,.149E-4,0
KAZSTSAT,2018-099AB,2026-06-04T02:06:44.944416,14.99830724,.00074062,97.4265,187.6128,103.9174,256.2874,0,U,43783,999,40934,.12338823E-3,.1472E-4,0
SAUDISAT 5A,2018-102A,2026-06-04T06:19:40.186848,15.27908949,.00099684,97.3070,217.0945,170.1556,189.9881,0,U,43831,999,41370,.24519136E-3,.6615E-4,0
SAUDISAT 5B,2018-102C,2026-06-04T06:49:58.480896,15.28172963,.00106218,97.3177,220.1613,172.9851,187.1539,0,U,43833,999,41382,.22601521E-3,.6142E-4,0
GAOFEN-10R,2019-066A,2026-06-04T08:01:43.716000,14.83031645,.00057163,98.0497,108.8207,164.2164,195.9229,0,U,44622,999,36047,.18755964E-3,.1471E-4,0
CARTOSAT-3,2019-081A,2026-06-04T05:56:59.250336,15.19356876,.00122878,97.4307,217.3223,189.8912,170.2083,0,U,44804,999,36150,.26974394E-3,.5646E-4,0
GAOFEN-12 01,2019-082A,2026-06-04T07:20:00.200832,14.80447808,.0002528,97.8101,162.0251,85.5914,274.5587,0,U,44819,999,35218,.73598718E-4,.512E-5,0
CSG-1,2019-092A,2026-06-04T07:00:15.992928,14.82153569,.00014352,97.8886,339.0813,90.5861,269.5517,0,U,44873,999,34956,.76204599E-4,.554E-5,0
NEMO-HD,2020-061F,2026-06-04T04:07:21.176832,15.44320122,.00026529,97.1922,217.2581,95.3267,264.8285,0,U,46277,999,31997,.25517687E-3,.11675E-3,0
SENTINEL-6A,2020-086A,2026-06-04T02:59:49.437600,12.80929623,.00079534,66.0385,162.1831,270.2004,89.8100,0,U,46984,999,25865,.16507207E-4,-.57E-6,0
CAS500-1,2021-022A,2026-06-04T07:02:12.139584,15.20176133,.00046177,97.3912,50.8065,353.4620,6.6554,0,U,47932,999,28880,.28374107E-3,.6077E-4,0
GAOFEN-12 02,2021-026A,2026-06-04T07:33:56.863008,14.80285804,.0003337,97.9920,153.5487,280.3063,79.7773,0,U,48079,999,27985,.69387684E-4,.476E-5,0
PLEIADES NEO 3,2021-034A,2026-06-02T09:30:14.112288,14.81680615,.00014715,97.8935,228.3753,92.5758,267.5623,0,U,48268,999,27546,.18487892E-3,.1403E-4,0
PLEIADES NEO 4,2021-073E,2026-06-04T06:04:30.850176,14.81675983,.00014496,97.8931,230.2014,88.5220,271.6159,0,U,49070,999,25945,.19594632E-3,.149E-4,0
LANDSAT 9,2021-088A,2026-06-04T01:56:00.027168,14.57125204,.00014945,98.1855,225.4188,95.3685,264.7684,0,U,49260,999,24909,.10641505E-3,.435E-5,0
CSG-2,2022-008A,2026-06-04T06:11:38.444640,14.82162707,.00014428,97.8879,339.0430,83.6005,276.5373,0,U,51444,999,23467,.23845905E-4,.138E-5,0
GAOFEN-12 03,2022-069A,2026-06-04T06:36:17.046720,14.80013766,.00014606,97.8293,43.4702,111.1736,248.9632,0,U,52912,999,21270,.14472928E-3,.1044E-4,0
SWOT,2022-173A,2026-06-04T06:27:54.846720,14.00173183,.00002006,77.6112,52.7482,98.6146,261.5029,0,U,54754,999,17734,.50482259E-4,.72E-6,0
GAOFEN-12 04,2023-123A,2026-06-04T07:02:44.383200,14.80203076,.00017672,97.9130,73.4963,89.1287,271.0127,0,U,57654,999,15072,.17250816E-3,.1259E-4,0
PARS 1,2024-039Q,2026-06-04T07:13:52.897152,15.45448726,.00104985,97.4823,135.8186,150.8880,209.2956,0,U,59065,999,12665,.25698852E-3,.12238E-3,0
RESURS-P 4,2024-061A,2026-06-04T06:23:01.350240,15.32054509,.00011699,97.2751,103.3912,129.4304,230.7042,0,U,59371,999,12178,.11966122E-3,.3627E-4,0
LEGION 1,2024-081A,2026-06-04T05:30:17.428032,15.16572810,.00106021,97.5016,233.2255,59.1771,301.0504,0,U,59625,999,11557,.25548485E-3,.4927E-4,0
LEGION 2,2024-081B,2026-06-04T06:13:12.904896,15.16553375,.00120439,97.5016,233.3528,28.7822,331.4073,0,U,59626,999,11558,.22068808E-3,.4245E-4,0
ALOS-4 (DAICHI-4),2024-123A,2026-06-04T07:23:53.922336,14.79467198,.00016901,97.9238,252.6628,99.3231,260.8172,0,U,60182,999,10397,.25896652E-3,.1883E-4,0
LEGION 3,2024-146A,2026-06-04T03:35:29.528448,15.15933743,.00067214,45.0008,100.4718,86.2017,273.9630,0,U,60452,999,10004,.24449837E-3,.4507E-4,0
LEGION 4,2024-146B,2026-06-04T06:49:39.806400,15.15940432,.00139258,44.9994,191.6605,241.4075,118.5403,0,U,60453,999,9891,.21219785E-3,.3882E-4,0
SENTINEL-2C,2024-157A,2026-06-04T02:17:40.511328,14.30814144,.0001244,98.5692,230.0621,79.6188,280.5135,0,U,60989,999,9111,.70071023E-4,.14E-5,0
IONOSFERA-M 1,2024-199A,2026-06-04T06:05:29.177088,14.22751904,.00015218,98.7188,28.5617,127.4885,232.6431,0,U,61735,999,12586,.50519187E-4,.69E-6,0
