GAOFEN-11 01            
1 43585U 18063A   26155.23958528  .00016582  00000+0  24944-3 0  9991
2 43585  97.1296 222.1587 0004560  41.9080 318.2523 15.54900232438331
ICESAT-2                
1 43613U 18070A   26155.25555055  .00011375  00000+0  41281-3 0  9999
2 43613  92.0072 287.4869 0004649 122.2955 237.8745 15.28281930430486
HYSIS                   
1 43719U 18096A   26155.28665569  .00001490  00000+0  21037-3 0  9993
2 43719  97.9842 222.1348 0001575 117.9453 242.1918 14.78668565405513
KAZSTSAT                
1 43783U 18099AB  26155.08802019  .00001472  00000+0  12339-3 0  9993
2 43783  97.4265 187.6128 0007406 103.9174 256.2874 14.99830724409346
SAUDISAT 5A             
1 43831U 18102A   26155.26365957  .00006615  00000+0  24519-3 0  9994
2 43831  97.3070 217.0945 0009968 170.1556 189.9881 15.27908949413705
SAUDISAT 5B             
1 43833U 18102C   26155.28470464  .00006142  00000+0  22602-3 0  9994
2 43833  97.3177 220.1613 0010621 172.9851 187.1539 15.28172963413821
GAOFEN-10R              
1 44622U 19066A   26155.33453375  .00001471  00000+0  18756-3 0  9994
2 44622  98.0497 108.8207 0005716 164.2164 195.9229 14.83031645360478
CARTOSAT-3              
1 44804U 19081A   26155.24790799  .00005646  00000+0  26974-3 0  9996
2 44804  97.4307 217.3223 0012287 189.8912 170.2083 15.19356876361507
GAOFEN-12 01            
1 44819U 19082A   26155.30555788  .00000512  00000+0  73599-4 0  9990
2 44819  97.8101 162.0251 0002528  85.5914 274.5587 14.80447808352181
CSG-1                   
1 44873U 19092A   26155.29185177  .00000554  00000+0  76205-4 0  9993
2 44873  97.8886 339.0813 0001435  90.5861 269.5517 14.82153569349569
NEMO-HD                 
1 46277U 20061F   26155.17177288  .00011675  00000+0  25518-3 0  9998
2 46277  97.1922 217.2581 0002652  95.3267 264.8285 15.44320122319979
SENTINEL-6A             
1 46984U 20086A   26155.12487775 -.00000057  00000+0  16507-4 0  9992
2 46984  66.0385 162.1831 0007953 270.2004  89.8100 12.80929623258656
CAS500-1                
1 47932U 21022A   26155.29319606  .00006077  00000+0  28374-3 0  9993
2 47932  97.3912  50.8065 0004617 353.4620   6.6554 15.20176133288804
GAOFEN-12 02            
1 48079U 21026A   26155.31524147  .00000476  00000+0  69388-4 0  9999
2 48079  97.9920 153.5487 0003337 280.3063  79.7773 14.80285804279858
PLEIADES NEO 3          
1 48268U 21034A   26153.39599667  .00001403  00000+0  18488-3 0  9998
2 48268  97.8935 228.3753 0001471  92.5758 267.5623 14.81680615275465
PLEIADES NEO 4          
1 49070U 21073E   26155.25313484  .00001490  00000+0  19595-3 0  9997
2 49070  97.8931 230.2014 0001449  88.5220 271.6159 14.81675983259452
LANDSAT 9               
1 49260U 21088A   26155.08055587  .00000435  00000+0  10642-3 0  9994
2 49260  98.1855 225.4188 0001494  95.3685 264.7684 14.57125204249095
CSG-2                   
1 51444U 22008A   26155.25808385  .00000138  00000+0  23846-4 0  9996
2 51444  97.8879 339.0430 0001442  83.6005 276.5373 14.82162707234676
GAOFEN-12 03            
1 52912U 22069A   26155.27519730  .00001044  00000+0  14473-3 0  9991
2 52912  97.8293  43.4702 0001460 111.1736 248.9632 14.80013766212702
SWOT                    
1 54754U 22173A   26155.26938480  .00000072  00000+0  50482-4 0  9990
2 54754  77.6112  52.7482 0000200  98.6146 261.5029 14.00173183177340
GAOFEN-12 04            
1 57654U 23123A   26155.29356925  .00001259  00000+0  17251-3 0  9993
2 57654  97.9130  73.4963 0001767  89.1287 271.0127 14.80203076150722
PARS 1                  
1 59065U 24039Q   26155.30130668  .00012238  00000+0  25699-3 0  9998
2 59065  97.4823 135.8186 0010498 150.8880 209.2956 15.45448726126653
RESURS-P 4              
1 59371U 24061A   26155.26598785  .00003627  00000+0  11966-3 0  9990
2 59371  97.2751 103.3912 0001169 129.4304 230.7042 15.32054509121788
LEGION 1                
1 59625U 24081A   26155.22936838  .00004927  00000+0  25548-3 0  9990
2 59625  97.5016 233.2255 0010602  59.1771 301.0504 15.16572810115576
LEGION 2                
1 59626U 24081B   26155.25917714  .00004245  00000+0  22069-3 0  9994
2 59626  97.5016 233.3528 0012043  28.7822 331.4073 15.16553375115585
ALOS-4 (DAICHI-4)       
1 60182U 24123A   26155.30826299  .00001883  00000+0  25897-3 0  9990
2 60182  97.9238 252.6628 0001690  99.3231 260.8172 14.79467198103973
LEGION 3                
1 60452U 24146A   26155.14964732  .00004507  00000+0  24450-3 0  9992
2 60452  45.0008 100.4718 0006721  86.2017 273.9630 15.15933743100043
LEGION 4                
1 60453U 24146B   26155.28448850  .00003882  00000+0  21220-3 0  9993
2 60453  44.9994 191.6605 0013925 241.4075 118.5403 15.15940432 98913
SENTINEL-2C             
1 60989U 24157A   26155.09560777  .00000140  00000+0  70071-4 0  9994
2 60989  98.5692 230.0621 0001244  79.6188 280.5135 14.30814144 91113
IONOSFERA-M 1           
1 61735U 24199A   26155.25380992  .00000069  00000+0  50519-4 0  9992
2 61735  98.7188  28.5617 0001521 127.4885 232.6431 14.22751904125866
